{
    "links": {
        "self": "http://www.neowsapp.com/rest/v1/neo/3785786?api_key=iIulBulltgU6a56xZRHN4H3l9WmuAYTsLGpBGhQ2"
    },
    "id": "3785786",
    "neo_reference_id": "3785786",
    "name": "(2017 TD5)",
    "designation": "2017 TD5",
    "nasa_jpl_url": "http://ssd.jpl.nasa.gov/sbdb.cgi?sstr=3785786",
    "absolute_magnitude_h": 25.7,
    "estimated_diameter": {
        "kilometers": {
            "estimated_diameter_min": 0.0192555078,
            "estimated_diameter_max": 0.0430566244
        },
        "meters": {
            "estimated_diameter_min": 19.2555078188,
            "estimated_diameter_max": 43.0566244241
        },
        "miles": {
            "estimated_diameter_min": 0.0119648141,
            "estimated_diameter_max": 0.0267541378
        },
        "feet": {
            "estimated_diameter_min": 63.1742402722,
            "estimated_diameter_max": 141.2618956756
        }
    },
    "is_potentially_hazardous_asteroid": false,
    "close_approach_data": [
        {
            "close_approach_date": "2017-10-18",
            "close_approach_date_full": "2017-Oct-18 19:26",
            "epoch_date_close_approach": 1508354760000,
            "relative_velocity": {
                "kilometers_per_second": "18.7011537347",
                "kilometers_per_hour": "67324.1534447947",
                "miles_per_hour": "41832.6107890726"
            },
            "miss_distance": {
                "astronomical": "0.0285843775",
                "lunar": "11.1193228475",
                "kilometers": "4276161.989275925",
                "miles": "2657083.849520765"
            },
            "orbiting_body": "Earth"
        }
    ],
    "orbital_data": {
        "orbit_id": "1",
        "orbit_determination_date": "2017-10-15 18:12:16",
        "first_observation_date": "2017-10-13",
        "last_observation_date": "2017-10-15",
        "data_arc_in_days": 2,
        "observations_used": 21,
        "orbit_uncertainty": "8",
        "minimum_orbit_intersection": ".000253616",
        "jupiter_tisserand_invariant": "2.939",
        "epoch_osculation": "2458040.5",
        "eccentricity": ".7260838945431275",
        "semi_major_axis": "2.661482024208891",
        "inclination": ".4689420828501777",
        "ascending_node_longitude": "342.5796025728564",
        "orbital_period": "1585.928971385179",
        "perihelion_distance": ".7290227908147732",
        "perihelion_argument": "113.6337375533206",
        "aphelion_distance": "4.593941257603009",
        "perihelion_time": "2458087.098717555868",
        "mean_anomaly": "349.4222637818008",
        "mean_motion": ".2269962945979664",
        "equinox": "J2000",
        "orbit_class": {
            "orbit_class_type": "APO",
            "orbit_class_description": "Near-Earth asteroid orbits which cross the Earth’s orbit similar to that of 1862 Apollo",
            "orbit_class_range": "a (semi-major axis) > 1.0 AU; q (perihelion) < 1.017 AU"
        }
    },
    "is_sentry_object": false
}